{"type": "FeatureCollection", "features": [ {"type": "Feature", "properties": {"norad_id": 66475, "name": "STARLINK-35538", "group": "last-30-days", "lat": -4.358575859707759, "lon": 79.93964184146087, "alt_km": 414.48025843284813, "timestamp": "2025-12-10T09:57:43.488359+00:00", "meta": {"OBJECT_NAME": "STARLINK-35538", "OBJECT_ID": "2025-262V", "EPOCH": "2025-12-09T18:31:52.681728", "MEAN_MOTION": 15.50621221, "ECCENTRICITY": 0.0001445, "INCLINATION": 43.0003, "RA_OF_ASC_NODE": 88.3936, "ARG_OF_PERICENTER": 273.5601, "MEAN_ANOMALY": 86.5094, "EPHEMERIS_TYPE": 0, "CLASSIFICATION_TYPE": "U", "NORAD_CAT_ID": 66475, "ELEMENT_SET_NO": 999, "REV_AT_EPOCH": 510, "BSTAR": 0.0023305, "MEAN_MOTION_DOT": 0.00139042, "MEAN_MOTION_DDOT": 0}, "tle": {"line1": "1 66475U 25262V   25343.77213752  .00139042  00000+0  23305-2 0  9999", "line2": "2 66475  43.0003  88.3936 0001445 273.5601  86.5094 15.50621221  5108"}}, "geometry": {"type": "Point", "coordinates": [79.93964184146087, -4.358575859707759]}}, {"type": "Feature", "properties": {"norad_id": 66476, "name": "STARLINK-35372", "group": "last-30-days", "lat": -3.1342927437402963, "lon": 81.25731417480505, "alt_km": 414.61793343564386, "timestamp": "2025-12-10T09:57:43.488369+00:00", "meta": {"OBJECT_NAME": "STARLINK-35372", "OBJECT_ID": "2025-262W", "EPOCH": "2025-12-09T18:31:23.042208", "MEAN_MOTION": 15.50602301, "ECCENTRICITY": 0.0001427, "INCLINATION": 43.0003, "RA_OF_ASC_NODE": 88.3902, "ARG_OF_PERICENTER": 272.5398, "MEAN_ANOMALY": 87.5299, "EPHEMERIS_TYPE": 0, "CLASSIFICATION_TYPE": "U", "NORAD_CAT_ID": 66476, "ELEMENT_SET_NO": 999, "REV_AT_EPOCH": 499, "BSTAR": 0.0014968, "MEAN_MOTION_DOT": 0.00088544, "MEAN_MOTION_DDOT": 0}, "tle": {"line1": "1 66476U 25262W   25343.77179447  .00088544  00000+0  14968-2 0  9997", "line2": "2 66476  43.0003  88.3902 0001427 272.5398  87.5299 15.50602301  4996"}}, "geometry": {"type": "Point", "coordinates": [81.25731417480505, -3.1342927437402963]}}, {"type": "Feature", "properties": {"norad_id": 66477, "name": "STARLINK-35354", "group": "last-30-days", "lat": -0.46458596133702995, "lon": 84.11677383266388, "alt_km": 414.63150747188865, "timestamp": "2025-12-10T09:57:43.488382+00:00", "meta": {"OBJECT_NAME": "STARLINK-35354", "OBJECT_ID": "2025-262X", "EPOCH": "2025-12-09T16:57:38.372832", "MEAN_MOTION": 15.50612558, "ECCENTRICITY": 0.0001281, "INCLINATION": 43.0007, "RA_OF_ASC_NODE": 88.7605, "ARG_OF_PERICENTER": 244.4976, "MEAN_ANOMALY": 115.5752, "EPHEMERIS_TYPE": 0, "CLASSIFICATION_TYPE": "U", "NORAD_CAT_ID": 66477, "ELEMENT_SET_NO": 999, "REV_AT_EPOCH": 509, "BSTAR": 0.001749, "MEAN_MOTION_DOT": 0.00103756, "MEAN_MOTION_DDOT": 0}, "tle": {"line1": "1 66477U 25262X   25343.70669413  .00103756  00000+0  17490-2 0  9994", "line2": "2 66477  43.0007  88.7605 0001281 244.4976 115.5752 15.50612558  5096"}}, "geometry": {"type": "Point", "coordinates": [84.11677383266388, -0.46458596133702995]}}, {"type": "Feature", "properties": {"norad_id": 66478, "name": "STARLINK-35283", "group": "last-30-days", "lat": 0.8606991062954789, "lon": 85.53410474634791, "alt_km": 413.8721171425441, "timestamp": "2025-12-10T09:57:43.488392+00:00", "meta": {"OBJECT_NAME": "STARLINK-35283", "OBJECT_ID": "2025-262Y", "EPOCH": "2025-12-09T16:57:08.842176", "MEAN_MOTION": 15.50609402, "ECCENTRICITY": 0.0001509, "INCLINATION": 43.001, "RA_OF_ASC_NODE": 88.7576, "ARG_OF_PERICENTER": 278.6831, "MEAN_ANOMALY": 81.3858, "EPHEMERIS_TYPE": 0, "CLASSIFICATION_TYPE": "U", "NORAD_CAT_ID": 66478, "ELEMENT_SET_NO": 999, "REV_AT_EPOCH": 509, "BSTAR": 0.0021459, "MEAN_MOTION_DOT": 0.00127763, "MEAN_MOTION_DDOT": 0}, "tle": {"line1": "1 66478U 25262Y   25343.70635234  .00127763  00000+0  21459-2 0  9993", "line2": "2 66478  43.0010  88.7576 0001509 278.6831  81.3858 15.50609402  5091"}}, "geometry": {"type": "Point", "coordinates": [85.53410474634791, 0.8606991062954789]}}, {"type": "Feature", "properties": {"norad_id": 66479, "name": "STARLINK-35581", "group": "last-30-days", "lat": -1.7694887459837183, "lon": 82.72015588549425, "alt_km": 414.3130651076599, "timestamp": "2025-12-10T09:57:43.488402+00:00", "meta": {"OBJECT_NAME": "STARLINK-35581", "OBJECT_ID": "2025-262Z", "EPOCH": "2025-12-09T16:58:07.905216", "MEAN_MOTION": 15.50587074, "ECCENTRICITY": 0.00014, "INCLINATION": 43.0008, "RA_OF_ASC_NODE": 88.7631, "ARG_OF_PERICENTER": 270.6603, "MEAN_ANOMALY": 89.4097, "EPHEMERIS_TYPE": 0, "CLASSIFICATION_TYPE": "U", "NORAD_CAT_ID": 66479, "ELEMENT_SET_NO": 999, "REV_AT_EPOCH": 509, "BSTAR": 0.0023334, "MEAN_MOTION_DOT": 0.00139045, "MEAN_MOTION_DDOT": 0}, "tle": {"line1": "1 66479U 25262Z   25343.70703594  .00139045  00000+0  23334-2 0  9999", "line2": "2 66479  43.0008  88.7631 0001400 270.6603  89.4097 15.50587074  5094"}}, "geometry": {"type": "Point", "coordinates": [82.72015588549425, -1.7694887459837183]}}, {"type": "Feature", "properties": {"norad_id": 66480, "name": "STARLINK-35670", "group": "last-30-days", "lat": 2.1408151481624036, "lon": 86.90428242225919, "alt_km": 413.7708458164834, "timestamp": "2025-12-10T09:57:43.488413+00:00", "meta": {"OBJECT_NAME": "STARLINK-35670", "OBJECT_ID": "2025-262AA", "EPOCH": "2025-12-09T16:56:39.028128", "MEAN_MOTION": 15.50609905, "ECCENTRICITY": 0.0001525, "INCLINATION": 43.0006, "RA_OF_ASC_NODE": 88.7544, "ARG_OF_PERICENTER": 283.202, "MEAN_ANOMALY": 76.867, "EPHEMERIS_TYPE": 0, "CLASSIFICATION_TYPE": "U", "NORAD_CAT_ID": 66480, "ELEMENT_SET_NO": 999, "REV_AT_EPOCH": 509, "BSTAR": 0.0016582, "MEAN_MOTION_DOT": 0.00098275, "MEAN_MOTION_DDOT": 0}, "tle": {"line1": "1 66480U 25262AA  25343.70600727  .00098275  00000+0  16582-2 0  9991", "line2": "2 66480  43.0006  88.7544 0001525 283.2020  76.8670 15.50609905  5093"}}, "geometry": {"type": "Point", "coordinates": [86.90428242225919, 2.1408151481624036]}}, {"type": "Feature", "properties": {"norad_id": 66481, "name": "STARLINK-35698", "group": "last-30-days", "lat": 3.3971421918341425, "lon": 88.25288451738209, "alt_km": 413.85692616039614, "timestamp": "2025-12-10T09:57:43.488422+00:00", "meta": {"OBJECT_NAME": "STARLINK-35698", "OBJECT_ID": "2025-262AB", "EPOCH": "2025-12-09T18:28:54.950016", "MEAN_MOTION": 15.50604037, "ECCENTRICITY": 0.0001521, "INCLINATION": 43.0001, "RA_OF_ASC_NODE": 88.3747, "ARG_OF_PERICENTER": 275.7542, "MEAN_ANOMALY": 84.3145, "EPHEMERIS_TYPE": 0, "CLASSIFICATION_TYPE": "U", "NORAD_CAT_ID": 66481, "ELEMENT_SET_NO": 999, "REV_AT_EPOCH": 510, "BSTAR": 0.0015064, "MEAN_MOTION_DOT": 0.00089124, "MEAN_MOTION_DDOT": 0}, "tle": {"line1": "1 66481U 25262AB  25343.77008044  .00089124  00000+0  15064-2 0  9990", "line2": "2 66481  43.0001  88.3747 0001521 275.7542  84.3145 15.50604037  5105"}}, "geometry": {"type": "Point", "coordinates": [88.25288451738209, 3.3971421918341425]}}, {"type": "Feature", "properties": {"norad_id": 66482, "name": "STARLINK-35648", "group": "last-30-days", "lat": 4.700498326444471, "lon": 89.65770187295716, "alt_km": 413.85467384728054, "timestamp": "2025-12-10T09:57:43.488432+00:00", "meta": {"OBJECT_NAME": "STARLINK-35648", "OBJECT_ID": "2025-262AC", "EPOCH": "2025-12-09T18:28:25.260384", "MEAN_MOTION": 15.50603203, "ECCENTRICITY": 0.0001397, "INCLINATION": 43.0004, "RA_OF_ASC_NODE": 88.3717, "ARG_OF_PERICENTER": 267.5657, "MEAN_ANOMALY": 92.5044, "EPHEMERIS_TYPE": 0, "CLASSIFICATION_TYPE": "U", "NORAD_CAT_ID": 66482, "ELEMENT_SET_NO": 999, "REV_AT_EPOCH": 494, "BSTAR": 0.0014865, "MEAN_MOTION_DOT": 0.00087927, "MEAN_MOTION_DDOT": 0}, "tle": {"line1": "1 66482U 25262AC  25343.76973681  .00087927  00000+0  14865-2 0  9995", "line2": "2 66482  43.0004  88.3717 0001397 267.5657  92.5044 15.50603203  4947"}}, "geometry": {"type": "Point", "coordinates": [89.65770187295716, 4.700498326444471]}}, {"type": "Feature", "properties": {"norad_id": 66483, "name": "STARLINK-35654", "group": "last-30-days", "lat": 6.014238596142926, "lon": 91.08213674814876, "alt_km": 413.3136343562592, "timestamp": "2025-12-10T09:57:43.488445+00:00", "meta": {"OBJECT_NAME": "STARLINK-35654", "OBJECT_ID": "2025-262AD", "EPOCH": "2025-12-09T18:27:55.708128", "MEAN_MOTION": 15.50607552, "ECCENTRICITY": 0.0001469, "INCLINATION": 43.0002, "RA_OF_ASC_NODE": 88.3686, "ARG_OF_PERICENTER": 288.036, "MEAN_ANOMALY": 72.034, "EPHEMERIS_TYPE": 0, "CLASSIFICATION_TYPE": "U", "NORAD_CAT_ID": 66483, "ELEMENT_SET_NO": 999, "REV_AT_EPOCH": 510, "BSTAR": 0.0016453, "MEAN_MOTION_DOT": 0.00097488, "MEAN_MOTION_DDOT": 0}, "tle": {"line1": "1 66483U 25262AD  25343.76939477  .00097488  00000+0  16453-2 0  9999", "line2": "2 66483  43.0002  88.3686 0001469 288.0360  72.0340 15.50607552  5102"}}, "geometry": {"type": "Point", "coordinates": [91.08213674814876, 6.014238596142926]}}, {"type": "Feature", "properties": {"norad_id": 66484, "name": "STARLINK-35371", "group": "last-30-days", "lat": 7.223540291129195, "lon": 92.40598342463247, "alt_km": 413.4126337220341, "timestamp": "2025-12-10T09:57:43.488455+00:00", "meta": {"OBJECT_NAME": "STARLINK-35371", "OBJECT_ID": "2025-262AE", "EPOCH": "2025-12-10T03:43:58.680192", "MEAN_MOTION": 15.50628048, "ECCENTRICITY": 0.0001774, "INCLINATION": 43.0009, "RA_OF_ASC_NODE": 86.1075, "ARG_OF_PERICENTER": 281.5486, "MEAN_ANOMALY": 78.5175, "EPHEMERIS_TYPE": 0, "CLASSIFICATION_TYPE": "U", "NORAD_CAT_ID": 66484, "ELEMENT_SET_NO": 999, "REV_AT_EPOCH": 516, "BSTAR": 0.0023327, "MEAN_MOTION_DOT": 0.00139211, "MEAN_MOTION_DDOT": 0}, "tle": {"line1": "1 66484U 25262AE  25344.15554028  .00139211  00000+0  23327-2 0  9998", "line2": "2 66484  43.0009  86.1075 0001774 281.5486  78.5175 15.50628048  5160"}}, "geometry": {"type": "Point", "coordinates": [92.40598342463247, 7.223540291129195]}}]}